SatCatId,ObjectName,LaunchYear,OrbitalPeriod,LaunchMass,StatusCode,Inclination,Status,UcsData,OrbitClassEstimated,LaunchSiteCountry,Owner,UseType,Purpose,LaunchVehicleClass,TLE1,TLE2,MeanMotion,Eccentricity,OrbitClass
55151,ONEWEB-0572,2023,96.56,-1.0,+,86.51,Active,0,LEO,USA,UK,Unknown,Unknown,Soyuz,1 55151U 23004M   23027.75719730  .00005897  00000+0  58853-3 0  9999,2 55151  86.5110 278.0136 0013181 150.9121 209.2843 14.91300034  2768,14.91300034,0.0013181,LEO
55152,ONEWEB-0573,2023,96.56,-1.0,+,86.51,Active,0,LEO,USA,UK,Unknown,Unknown,Soyuz,1 55152U 23004N   23027.68939482  .00004431  00000+0  44098-3 0  9999,2 55152  86.5111 278.0425 0013677 154.0356 206.1560 14.91350722  2756,14.91350722,0.0013677,LEO
55153,ONEWEB-0588,2023,96.6,-1.0,+,86.51,Active,0,LEO,USA,UK,Unknown,Unknown,Soyuz,1 55153U 23004P   23027.69698051  .00004413  00000+0  44667-3 0  9997,2 55153  86.5127 278.0501 0010554 150.9858 209.1957 14.90706066  2750,14.90706066,0.0010554,LEO
55154,ONEWEB-0598,2023,97.18,-1.0,+,86.59,Active,0,LEO,USA,UK,Unknown,Unknown,Soyuz,1 55154U 23004Q   23028.33334491 -.00719272  00000+0 -99499-1 0  9994,2 55154  86.5935 277.8193 0011566 145.2425 264.3286 14.80794524  2846,14.80794524,0.0011566,LEO
55155,ONEWEB-0599,2023,96.55,-1.0,+,86.51,Active,0,LEO,USA,UK,Unknown,Unknown,Soyuz,1 55155U 23004R   23028.22569177  .00004047  00000+0  40207-3 0  9994,2 55155  86.5113 277.8048 0013623 150.7669 209.4324 14.91398436  2837,14.91398436,0.0013623,LEO
55156,ONEWEB-0614,2023,97.13,-1.0,+,86.58,Active,0,LEO,USA,UK,Unknown,Unknown,Soyuz,1 55156U 23004S   23028.33334491 -.00682455  00000+0 -92283-1 0  9992,2 55156  86.5887 277.8163 0011906 146.4829 279.0430 14.81603210  2846,14.8160321,0.0011906,LEO
55157,ONEWEB-0616,2023,96.57,-1.0,+,86.51,Active,0,LEO,USA,UK,Unknown,Unknown,Soyuz,1 55157U 23004T   23028.22837824  .00004465  00000+0  44647-3 0  9999,2 55157  86.5098 277.7991 0012818 148.5320 211.6676 14.91172668  2833,14.91172668,0.0012818,LEO
55158,ONEWEB-0617,2023,97.25,-1.0,+,86.59,Active,0,LEO,USA,UK,Unknown,Unknown,Soyuz,1 55158U 23004U   23028.25001157 -.00653091  00000+0 -91889-1 0  9990,2 55158  86.6016 277.8773 0009937 147.8215 134.1058 14.79857269  2833,14.79857269,0.0009937,LEO
55159,ONEWEB-0618,2023,96.56,-1.0,+,86.51,Active,0,LEO,USA,UK,Unknown,Unknown,Soyuz,1 55159U 23004V   23028.22760641  .00004118  00000+0  41078-3 0  9993,2 55159  86.5111 277.8053 0012979 148.7682 211.4319 14.91244560  2835,14.9124456,0.0012979,LEO
55160,ONEWEB-0619,2023,96.55,-1.0,+,86.51,Active,0,LEO,USA,UK,Unknown,Unknown,Soyuz,1 55160U 23004W   23028.22436146  .00004050  00000+0  40115-3 0  9991,2 55160  86.5103 277.7997 0014081 151.1661 209.0348 14.91512463  2830,14.91512463,0.0014081,LEO
55161,ONEWEB-0620,2023,97.19,-1.0,+,86.58,Active,0,LEO,USA,UK,Unknown,Unknown,Soyuz,1 55161U 23004X   23028.33334491 -.00694387  00000+0 -96066-1 0  9998,2 55161  86.5926 277.8190 0011317 148.3611 253.9276 14.80701333  2845,14.80701333,0.0011317,LEO
55162,ONEWEB-0621,2023,98.01,-1.0,+,86.63,Active,0,LEO,USA,UK,Unknown,Unknown,Soyuz,1 55162U 23004Y   23027.91667824 -.00768034  00000+0 -13997+0 0  9992,2 55162  86.6287 278.1520 0008637 154.1065 107.4593 14.68752232  1302,14.68752232,0.0008637,LEO
55163,ONEWEB-0622,2023,97.22,-1.0,+,86.59,Active,0,LEO,USA,UK,Unknown,Unknown,Soyuz,1 55163U 23004Z   23027.91667824 -.00652817  00000+0 -89722-1 0  9995,2 55163  86.5939 278.0156 0010740 152.3269 163.3823 14.80829472  1306,14.80829472,0.001074,LEO
55164,ONEWEB-0623,2023,96.52,-1.0,+,86.51,Active,0,LEO,USA,UK,Unknown,Unknown,Soyuz,1 55164U 23004AA  23027.75072617  .00002060  00000+0  20089-3 0  9998,2 55164  86.5093 278.0045 0014941 158.9900 201.1945 14.91850092  2767,14.91850092,0.0014941,LEO
55165,ONEWEB-0624,2023,96.51,-1.0,+,86.51,Active,0,LEO,USA,UK,Unknown,Unknown,Soyuz,1 55165U 23004AB  23028.21825752  .00003927  00000+0  38380-3 0  9993,2 55165  86.5119 277.7980 0014882 159.6987 200.4836 14.92021967  2839,14.92021967,0.0014882,LEO
55166,ONEWEB-0625,2023,96.56,-1.0,+,86.51,Active,0,LEO,USA,UK,Unknown,Unknown,Soyuz,1 55166U 23004AC  23027.69070937  .00008122  00000+0  81255-3 0  9993,2 55166  86.5099 278.0374 0012934 150.3778 209.8185 14.91254156  2758,14.91254156,0.0012934,LEO
55167,ONEWEB-0626,2023,96.51,-1.0,+,86.51,Active,0,LEO,USA,UK,Unknown,Unknown,Soyuz,1 55167U 23004AD  23028.21792127  .00003916  00000+0  38252-3 0  9990,2 55167  86.5095 277.7952 0015028 160.6664 199.5137 14.92047773  2835,14.92047773,0.0015028,LEO
55168,ONEWEB-0627,2023,96.52,-1.0,+,86.51,Active,0,LEO,USA,UK,Unknown,Unknown,Soyuz,1 55168U 23004AE  23028.21970837  .00003845  00000+0  37690-3 0  9993,2 55168  86.5088 277.7950 0014994 158.0866 202.1006 14.91898600  2830,14.918986,0.0014994,LEO
55169,ONEWEB-0628,2023,96.52,-1.0,+,86.51,Active,0,LEO,USA,UK,Unknown,Unknown,Soyuz,1 55169U 23004AF  23028.21905988  .00003622  00000+0  35446-3 0  9999,2 55169  86.5125 277.7995 0014957 159.0873 201.0970 14.91947455  2831,14.91947455,0.0014957,LEO
55170,ONEWEB-0629,2023,96.51,-1.0,+,86.51,Active,0,LEO,USA,UK,Unknown,Unknown,Soyuz,1 55170U 23004AG  23028.21719659  .00004014  00000+0  39156-3 0  9997,2 55170  86.5105 277.7957 0015247 161.7194 198.4585 14.92105629  2839,14.92105629,0.0015247,LEO
55171,ONEWEB-0631,2023,96.53,-1.0,+,86.51,Active,0,LEO,USA,UK,Unknown,Unknown,Soyuz,1 55171U 23004AH  23028.22038879  .00003880  00000+0  38091-3 0  9994,2 55171  86.5116 277.7990 0014895 156.9195 203.2705 14.91843103  2838,14.91843103,0.0014895,LEO
55172,ONEWEB-0709,2023,97.09,-1.0,+,86.57,Active,0,LEO,USA,UK,Unknown,Unknown,Soyuz,1 55172U 23004AJ  23027.91667824 -.00634440  00000+0 -83884-1 0  9990,2 55172  86.5756 277.9817 0011245 150.7589 220.2270 14.82777950  1307,14.8277795,0.0011245,LEO
55173,ONEWEB-0710,2023,96.53,-1.0,+,86.51,Active,0,LEO,USA,UK,Unknown,Unknown,Soyuz,1 55173U 23004AK  23028.22136721  .00009965  00000+0  98370-3 0  9997,2 55173  86.5106 277.7987 0014702 155.1583 205.0355 14.91781955  2831,14.91781955,0.0014702,LEO
55174,ONEWEB-0711,2023,97.25,-1.0,+,86.59,Active,0,LEO,USA,UK,Unknown,Unknown,Soyuz,1 55174U 23004AL  23027.91667824 -.00662044  00000+0 -92312-1 0  9999,2 55174  86.5946 278.0069 0010112 151.1167 162.8916 14.80266998  1301,14.80266998,0.0010112,LEO
55175,ONEWEB-0713,2023,97.27,-1.0,+,86.59,Active,0,LEO,USA,UK,Unknown,Unknown,Soyuz,1 55175U 23004AM  23028.33334491 -.00684116  00000+0 -97321-1 0  9997,2 55175  86.6013 277.8380 0010332 145.1263 213.7180 14.79505924  2847,14.79505924,0.0010332,LEO
55176,ONEWEB-0715,2023,97.21,-1.0,+,86.59,Active,0,LEO,USA,UK,Unknown,Unknown,Soyuz,1 55176U 23004AN  23028.33334491 -.00701927  00000+0 -98097-1 0  9999,2 55176  86.5991 277.8362 0010126 148.5155 236.7985 14.80319219  2840,14.80319219,0.0010126,LEO
55177,ONEWEB-0716,2023,96.55,-1.0,+,86.51,Active,0,LEO,USA,UK,Unknown,Unknown,Soyuz,1 55177U 23004AP  23027.75525139  .00004430  00000+0  43959-3 0  9998,2 55177  86.5114 278.0119 0013836 152.6567 207.5392 14.91462704  2764,14.91462704,0.0013836,LEO
55178,ONEWEB-0717,2023,96.59,-1.0,+,86.51,Active,0,LEO,USA,UK,Unknown,Unknown,Soyuz,1 55178U 23004AQ  23028.23262338  .00013215  00000+0  13381-2 0  9998,2 55178  86.5085 277.8003 0011018 146.8558 213.3361 14.90814693  2832,14.90814693,0.0011018,LEO
55179,ONEWEB-0719,2023,96.57,-1.0,+,86.51,Active,0,LEO,USA,UK,Unknown,Unknown,Soyuz,1 55179U 23004AR  23028.22850849  .00004128  00000+0  41260-3 0  9999,2 55179  86.5098 277.8000 0012688 148.6312 211.5675 14.91167110  2830,14.9116711,0.0012688,LEO
55181,SS-1,1998,92.67,-1.0,+,51.64,Active,0,LEO,Kazakhstan,Indonesia,Unknown,Unknown,Unknown,1 55181U 98067UY  23027.20630449  .00070910  00000+0  10780-2 0  9996,2 55181  51.6404 306.5428 0003986 242.5233 117.5353 15.53888780  3244,15.5388878,0.0003986,LEO
55182,HSKSAT,1998,92.72,-1.0,+,51.64,Active,0,LEO,Kazakhstan,Japan,Unknown,Unknown,Unknown,1 55182U 98067UZ  23027.20931148  .00047932  00000+0  75396-3 0  9990,2 55182  51.6410 306.5628 0003407 235.6196 124.4472 15.53117290  3254,15.5311729,0.0003407,LEO
55183,OPTIMAL-1,1998,92.74,-1.0,+,51.64,Active,0,LEO,Kazakhstan,Japan,Unknown,Unknown,Unknown,1 55183U 98067VA  23028.17684927  .00054126  00000+0  85730-3 0  9994,2 55183  51.6413 301.7747 0003903 347.4284  12.6608 15.52871218  3400,15.52871218,0.0003903,LEO
55239,APSTAR 6E,2023,180.78,-1.0,+,28.52,Active,0,MEO,PRC,China,Unknown,Unknown,Long March,1 55239U 23005A   23028.55174799  .00000013  00000+0  00000+0 0  9998,2 55239  28.4914 334.3335 2609740 142.1643 359.3331  7.87890570  1725,7.8789057,0.260974,MEO
55242,OBJECT A,2023,94.9,-1.0,+,43.2,Active,0,LEO,PRC,China,Unknown,Unknown,Unknown,1 55242U 23006A   23028.16968609  .00023216  00000+0  11485-2 0  9993,2 55242  43.2016 123.8972 0009056   9.1541  67.8375 15.17372636  2265,15.17372636,0.0009056,LEO
55243,OBJECT B,2023,94.92,-1.0,+,43.2,Active,0,LEO,PRC,China,Unknown,Unknown,Unknown,1 55243U 23006B   23028.29572446  .00011018  00000+0  55733-3 0  9990,2 55243  43.2018 123.2191 0008525   8.7730  28.5027 15.17050142  2285,15.17050142,0.0008525,LEO
55244,OBJECT C,2023,94.96,-1.0,+,43.2,Active,0,LEO,PRC,China,Unknown,Unknown,Unknown,1 55244U 23006C   23028.30223506  .00009929  00000+0  51356-3 0  9998,2 55244  43.2012 123.2712 0006047 354.8398  42.4506 15.16365527  2238,15.16365527,0.0006047,LEO
55248,OBJECT A,2023,94.46,-1.0,+,97.38,Active,0,LEO,PRC,China,Unknown,Unknown,Unknown,1 55248U 23007A   23028.19254731  .00016909  00000+0  68939-3 0  9995,2 55248  97.3775 102.4454 0008776 189.6999 254.9024 15.24483983  1995,15.24483983,0.0008776,LEO
55249,OBJECT B,2023,94.44,-1.0,+,97.38,Active,0,LEO,PRC,China,Unknown,Unknown,Unknown,1 55249U 23007B   23028.18941227  .00018790  00000+0  75686-3 0  9995,2 55249  97.3782 102.4517 0008257 199.9498 244.4895 15.24872212  1982,15.24872212,0.0008257,LEO
55250,OBJECT C,2023,94.41,-1.0,+,97.38,Active,0,LEO,PRC,China,Unknown,Unknown,Unknown,1 55250U 23007C   23028.18701690  .00026461  00000+0  10509-2 0  9991,2 55250  97.3754 102.4499 0007738 202.0577 243.3581 15.25279059  1980,15.25279059,0.0007738,LEO
